start=new Date('2022-04-27T00:00:00.000Z').valueOf();
sats=[{"CENTER_NAME":"EARTH","SITE":"AFETR","OBJECT_ID":"2021-018AJ","LAUNCH_DATE":"2021-03-11","ECCENTRICITY":"0.00020680","MEAN_ANOMALY":"316.5690","FILE":"3417474","APOAPSIS":"548.615","BSTAR":"0.00038633000000","INCLINATION":"53.0526","RA_OF_ASC_NODE":"114.8124","ELEMENT_SET_NO":"999","REF_FRAME":"TEME","COUNTRY_CODE":"US","PERIAPSIS":"545.750","CLASSIFICATION_TYPE":"U","RCS_SIZE":"LARGE","TLE_LINE1":"1 47819U 21018AJ  22116.69228185  .00005479  00000-0  38633-3 0  9995","NORAD_CAT_ID":"47819","ARG_OF_PERICENTER":"43.5462","PERIOD":"95.591","MEAN_ELEMENT_THEORY":"SGP4","GP_ID":"202110769","OBJECT_NAME":"STARLINK-2402","OBJECT_TYPE":"PAYLOAD","MEAN_MOTION":"15.06410105","REV_AT_EPOCH":"6368","TLE_LINE2":"2 47819  53.0526 114.8124 0002068  43.5462 316.5690 15.06410105 63689","MEAN_MOTION_DOT":"0.00005479","MEAN_MOTION_DDOT":"0.0000000000000","EPHEMERIS_TYPE":"0","EPOCH":"2022-04-26T16:36:53.151840","SEMIMAJOR_AXIS":"6925.318","DECAY_DATE":null,"TIME_SYSTEM":"UTC"},{"LAUNCH_DATE":"2021-03-11","MEAN_ANOMALY":"313.3378","ECCENTRICITY":"0.00017820","OBJECT_ID":"2021-018AK","INCLINATION":"53.0524","BSTAR":"0.00043676000000","FILE":"3417474","APOAPSIS":"548.408","CENTER_NAME":"EARTH","SITE":"AFETR","REF_FRAME":"TEME","COUNTRY_CODE":"US","PERIAPSIS":"545.940","RCS_SIZE":"LARGE","CLASSIFICATION_TYPE":"U","ELEMENT_SET_NO":"999","RA_OF_ASC_NODE":"124.0133","OBJECT_TYPE":"PAYLOAD","OBJECT_NAME":"STARLINK-2403","TLE_LINE2":"2 47820  53.0524 124.0133 0001782  46.7759 313.3378 15.06412918 63567","MEAN_MOTION":"15.06412918","REV_AT_EPOCH":"6356","NORAD_CAT_ID":"47820","TLE_LINE1":"1 47820U 21018AK  22116.87197252  .00006232  00000-0  43676-3 0  9998","ARG_OF_PERICENTER":"46.7759","PERIOD":"95.591","GP_ID":"202109516","MEAN_ELEMENT_THEORY":"SGP4","EPOCH":"2022-04-26T20:55:38.425728","TIME_SYSTEM":"UTC","SEMIMAJOR_AXIS":"6925.309","DECAY_DATE":null,"MEAN_MOTION_DOT":"0.00006232","EPHEMERIS_TYPE":"0","MEAN_MOTION_DDOT":"0.0000000000000"},{"SITE":"AFETR","CENTER_NAME":"EARTH","INCLINATION":"53.0531","BSTAR":"0.00010239000000","APOAPSIS":"548.462","FILE":"3417474","ECCENTRICITY":"0.00018010","MEAN_ANOMALY":"300.5030","LAUNCH_DATE":"2021-03-11","OBJECT_ID":"2021-018AL","ELEMENT_SET_NO":"999","RA_OF_ASC_NODE":"114.7025","RCS_SIZE":"LARGE","CLASSIFICATION_TYPE":"U","PERIAPSIS":"545.968","COUNTRY_CODE":"US","REF_FRAME":"TEME","GP_ID":"202109763","MEAN_ELEMENT_THEORY":"SGP4","ARG_OF_PERICENTER":"59.6137","PERIOD":"95.592","TLE_LINE1":"1 47821U 21018AL  22116.71714790  .00001244  00000-0  10239-3 0  9991","NORAD_CAT_ID":"47821","TLE_LINE2":"2 47821  53.0531 114.7025 0001801  59.6137 300.5030 15.06399464 63627","REV_AT_EPOCH":"6362","MEAN_MOTION":"15.06399464","OBJECT_TYPE":"PAYLOAD","OBJECT_NAME":"STARLINK-2406","MEAN_MOTION_DDOT":"0.0000000000000","EPHEMERIS_TYPE":"0","MEAN_MOTION_DOT":"0.00001244","TIME_SYSTEM":"UTC","DECAY_DATE":null,"SEMIMAJOR_AXIS":"6925.350","EPOCH":"2022-04-26T17:12:41.578560"},{"CENTER_NAME":"EARTH","SITE":"AFETR","OBJECT_ID":"2021-018AM","ECCENTRICITY":"0.00020730","MEAN_ANOMALY":"319.4355","LAUNCH_DATE":"2021-03-11","FILE":"3417474","APOAPSIS":"548.641","BSTAR":"0.00007588100000","INCLINATION":"53.0550","RA_OF_ASC_NODE":"124.6567","ELEMENT_SET_NO":"999","REF_FRAME":"TEME","RCS_SIZE":"LARGE","CLASSIFICATION_TYPE":"U","COUNTRY_CODE":"US","PERIAPSIS":"545.769","ARG_OF_PERICENTER":"40.6789","PERIOD":"95.592","NORAD_CAT_ID":"47822","TLE_LINE1":"1 47822U 21018AM  22116.72822336  .00000849  00000-0  75881-4 0  9994","GP_ID":"202111018","MEAN_ELEMENT_THEORY":"SGP4","OBJECT_NAME":"STARLINK-2407","OBJECT_TYPE":"PAYLOAD","REV_AT_EPOCH":"6349","MEAN_MOTION":"15.06402766","TLE_LINE2":"2 47822  53.0550 124.6567 0002073  40.6789 319.4355 15.06402766 63499","MEAN_MOTION_DOT":"0.00000849","MEAN_MOTION_DDOT":"0.0000000000000","EPHEMERIS_TYPE":"0","EPOCH":"2022-04-26T17:28:38.498304","DECAY_DATE":null,"SEMIMAJOR_AXIS":"6925.340","TIME_SYSTEM":"UTC"},{"EPOCH":"2022-04-26T06:42:24.607872","DECAY_DATE":null,"SEMIMAJOR_AXIS":"6925.296","TIME_SYSTEM":"UTC","MEAN_MOTION_DOT":"-0.00002483","MEAN_MOTION_DDOT":"0.0000000000000","EPHEMERIS_TYPE":"0","OBJECT_NAME":"STARLINK-2408","OBJECT_TYPE":"PAYLOAD","REV_AT_EPOCH":"6356","MEAN_MOTION":"15.06417068","TLE_LINE2":"2 47823  53.0537 116.6735 0001992  48.8431 311.2730 15.06417068 63562","ARG_OF_PERICENTER":"48.8431","PERIOD":"95.591","NORAD_CAT_ID":"47823","TLE_LINE1":"1 47823U 21018AN  22116.27945148 -.00002483  00000-0 -14773-3 0  9992","GP_ID":"202075356","MEAN_ELEMENT_THEORY":"SGP4","REF_FRAME":"TEME","CLASSIFICATION_TYPE":"U","RCS_SIZE":"LARGE","COUNTRY_CODE":"US","PERIAPSIS":"545.782","RA_OF_ASC_NODE":"116.6735","ELEMENT_SET_NO":"999","OBJECT_ID":"2021-018AN","MEAN_ANOMALY":"311.2730","ECCENTRICITY":"0.00019920","LAUNCH_DATE":"2021-03-11","APOAPSIS":"548.541","FILE":"3417035","BSTAR":"-0.00014773000000","INCLINATION":"53.0537","CENTER_NAME":"EARTH","SITE":"AFETR"},{"MEAN_MOTION_DDOT":"0.0000000000000","EPHEMERIS_TYPE":"0","MEAN_MOTION_DOT":"-0.00000658","SEMIMAJOR_AXIS":"6925.347","DECAY_DATE":null,"TIME_SYSTEM":"UTC","EPOCH":"2022-04-26T17:35:16.424736","MEAN_ELEMENT_THEORY":"SGP4","GP_ID":"202110017","TLE_LINE1":"1 47824U 21018AP  22116.73282899 -.00000658  00000-0 -25266-4 0  9993","NORAD_CAT_ID":"47824","ARG_OF_PERICENTER":"47.7991","PERIOD":"95.592","MEAN_MOTION":"15.06400380","REV_AT_EPOCH":"6362","TLE_LINE2":"2 47824  53.0542 114.6323 0001935  47.7991 312.3162 15.06400380 63623","OBJECT_NAME":"STARLINK-2409","OBJECT_TYPE":"PAYLOAD","RA_OF_ASC_NODE":"114.6323","ELEMENT_SET_NO":"999","PERIAPSIS":"545.872","COUNTRY_CODE":"US","RCS_SIZE":"LARGE","CLASSIFICATION_TYPE":"U","REF_FRAME":"TEME","SITE":"AFETR","CENTER_NAME":"EARTH","FILE":"3417474","APOAPSIS":"548.552","INCLINATION":"53.0542","BSTAR":"-0.00002526600000","OBJECT_ID":"2021-018AP","LAUNCH_DATE":"2021-03-11","ECCENTRICITY":"0.00019350","MEAN_ANOMALY":"312.3162"},{"SEMIMAJOR_AXIS":"6925.370","DECAY_DATE":null,"TIME_SYSTEM":"UTC","EPOCH":"2022-04-26T19:37:21.465984","MEAN_MOTION_DDOT":"0.0000000000000","EPHEMERIS_TYPE":"0","MEAN_MOTION_DOT":"-0.00000098","MEAN_MOTION":"15.06393080","REV_AT_EPOCH":"6364","TLE_LINE2":"2 47825  53.0531 114.2524 0001926  57.3484 302.7691 15.06393080 63645","OBJECT_NAME":"STARLINK-2410","OBJECT_TYPE":"PAYLOAD","MEAN_ELEMENT_THEORY":"SGP4","GP_ID":"202110264","TLE_LINE1":"1 47825U 21018AQ  22116.81760956 -.00000098  00000-0  12337-4 0  9990","NORAD_CAT_ID":"47825","ARG_OF_PERICENTER":"57.3484","PERIOD":"95.593","COUNTRY_CODE":"US","PERIAPSIS":"545.901","CLASSIFICATION_TYPE":"U","RCS_SIZE":"LARGE","REF_FRAME":"TEME","RA_OF_ASC_NODE":"114.2524","ELEMENT_SET_NO":"999","APOAPSIS":"548.569","FILE":"3417474","BSTAR":"0.00001233700000","INCLINATION":"53.0531","OBJECT_ID":"2021-018AQ","LAUNCH_DATE":"2021-03-11","MEAN_ANOMALY":"302.7691","ECCENTRICITY":"0.00019260","SITE":"AFETR","CENTER_NAME":"EARTH"},{"TLE_LINE2":"2 47826  53.0536 114.8681 0002264  42.4254 317.6910 15.06395378 63626","MEAN_MOTION":"15.06395378","REV_AT_EPOCH":"6362","OBJECT_TYPE":"PAYLOAD","OBJECT_NAME":"STARLINK-2411","MEAN_ELEMENT_THEORY":"SGP4","GP_ID":"202110518","TLE_LINE1":"1 47826U 21018AR  22116.68122956  .00001091  00000-0  92148-4 0  9999","NORAD_CAT_ID":"47826","PERIOD":"95.592","ARG_OF_PERICENTER":"42.4254","TIME_SYSTEM":"UTC","SEMIMAJOR_AXIS":"6925.363","DECAY_DATE":null,"EPOCH":"2022-04-26T16:20:58.233984","MEAN_MOTION_DDOT":"0.0000000000000","EPHEMERIS_TYPE":"0","MEAN_MOTION_DOT":"0.00001091","BSTAR":"0.00009214800000","INCLINATION":"53.0536","FILE":"3417474","APOAPSIS":"548.796","LAUNCH_DATE":"2021-03-11","ECCENTRICITY":"0.00022640","MEAN_ANOMALY":"317.6910","OBJECT_ID":"2021-018AR","SITE":"AFETR","CENTER_NAME":"EARTH","COUNTRY_CODE":"US","PERIAPSIS":"545.660","CLASSIFICATION_TYPE":"U","RCS_SIZE":"LARGE","REF_FRAME":"TEME","ELEMENT_SET_NO":"999","RA_OF_ASC_NODE":"114.8681"},{"REF_FRAME":"TEME","COUNTRY_CODE":"US","PERIAPSIS":"546.062","RCS_SIZE":"LARGE","CLASSIFICATION_TYPE":"U","RA_OF_ASC_NODE":"105.9411","ELEMENT_SET_NO":"999","OBJECT_ID":"2021-018AS","LAUNCH_DATE":"2021-03-11","ECCENTRICITY":"0.00016860","MEAN_ANOMALY":"307.1561","APOAPSIS":"548.398","FILE":"3417035","INCLINATION":"53.0525","BSTAR":"-0.00000497320000","CENTER_NAME":"EARTH","SITE":"AFETR","EPOCH":"2022-04-26T10:35:56.041440","SEMIMAJOR_AXIS":"6925.365","DECAY_DATE":null,"TIME_SYSTEM":"UTC","MEAN_MOTION_DOT":"-0.00000356","MEAN_MOTION_DDOT":"0.0000000000000","EPHEMERIS_TYPE":"0","OBJECT_NAME":"STARLINK-2413","OBJECT_TYPE":"PAYLOAD","MEAN_MOTION":"15.06394604","REV_AT_EPOCH":"6378","TLE_LINE2":"2 47827  53.0525 105.9411 0001686  52.9582 307.1561 15.06394604 63788","TLE_LINE1":"1 47827U 21018AS  22116.44162085 -.00000356  00000-0 -49732-5 0  9998","NORAD_CAT_ID":"47827","PERIOD":"95.592","ARG_OF_PERICENTER":"52.9582","GP_ID":"202075857","MEAN_ELEMENT_THEORY":"SGP4"},{"GP_ID":"202074605","MEAN_ELEMENT_THEORY":"SGP4","NORAD_CAT_ID":"47828","TLE_LINE1":"1 47828U 21018AT  22116.33382683  .00000447  00000-0  48920-4 0  9991","ARG_OF_PERICENTER":"38.0143","PERIOD":"95.592","TLE_LINE2":"2 47828  53.0538 126.4263 0002073  38.0143 322.0992 15.06404327 63435","MEAN_MOTION":"15.06404327","REV_AT_EPOCH":"6343","OBJECT_TYPE":"PAYLOAD","OBJECT_NAME":"STARLINK-2415","MEAN_MOTION_DDOT":"0.0000000000000","EPHEMERIS_TYPE":"0","MEAN_MOTION_DOT":"0.00000447","TIME_SYSTEM":"UTC","SEMIMAJOR_AXIS":"6925.335","DECAY_DATE":null,"EPOCH":"2022-04-26T08:00:42.638112","SITE":"AFETR","CENTER_NAME":"EARTH","INCLINATION":"53.0538","BSTAR":"0.00004892000000","APOAPSIS":"548.636","FILE":"3417035","LAUNCH_DATE":"2021-03-11","MEAN_ANOMALY":"322.0992","ECCENTRICITY":"0.00020730","OBJECT_ID":"2021-018AT","ELEMENT_SET_NO":"999","RA_OF_ASC_NODE":"126.4263","PERIAPSIS":"545.765","COUNTRY_CODE":"US","RCS_SIZE":"LARGE","CLASSIFICATION_TYPE":"U","REF_FRAME":"TEME"}];
